KUIPER-00183            
1 67138U 25301F   26013.48807912  .00020785  00000+0  61467-3 0  9995
2 67138  51.8645 332.2560 0011274 205.4324 154.6108 15.34823823  5416
KUIPER-00184            
1 67139U 25301G   26013.87240164  .00019226  00000+0  56407-3 0  9995
2 67139  51.8664 330.3362 0009378 204.2009 155.8537 15.35145644  5582
KUIPER-00186            
1 67140U 25301H   26013.14447312  .00020847  00000+0  59557-3 0  9991
2 67140  51.8705 333.7218 0007977 186.8007 173.2872 15.35937935  5198
KUIPER-00187            
1 67141U 25301J   26013.91668981 -.00526056  00000+0 -18017-1 0  9993
2 67141  51.8739 329.9248 0005853 180.6469 159.7241 15.31891107  5107
KUIPER-00188            
1 67142U 25301K   26013.40680515  .00023443  00000+0  67222-3 0  9999
2 67142  51.8720 332.4814 0007509 192.8279 167.2517 15.35751070  5232
KUIPER-00191            
1 67143U 25301L   26013.53340721  .00019579  00000+0  55990-3 0  9990
2 67143  51.8696 331.8250 0006276 187.1462 172.9436 15.35960235  5286
KUIPER-00196            
1 67144U 25301M   26013.25831723  .00023675  00000+0  66018-3 0  9992
2 67144  51.8738 332.9939 0003731 146.5702 213.5520 15.36637042  5216
KUIPER-00204            
1 67145U 25301N   26013.91668981 -.00004805  00000+0 -18484-3 0  9990
2 67145  51.8824 330.1996 0001834 144.7420  40.5913 15.23503985  5426
KUIPER-00210            
1 67146U 25301P   26013.48655850  .00015006  00000+0  44683-3 0  9997
2 67146  51.8613 332.2431 0010677 211.1873 148.8480 15.34859273  5412
KUIPER-00221            
1 67147U 25301Q   26013.91668981 -.00002763  00000+0 -73800-4 0  9997
2 67147  51.8736 329.9139 0005015 165.2265 192.4801 15.33014804  4795
KUIPER-00232            
1 67148U 25301R   26013.57129479  .00010264  00000+0  28770-3 0  9992
2 67148  51.8736 331.3428 0002682  92.9252 267.2041 15.37187059  5260
KUIPER-00241            
1 67149U 25301S   26013.90443580  .00024982  00000+0  69055-3 0  9995
2 67149  51.8753 329.8230 0003156 134.1326 225.9921 15.36878952  5649
